STARLINK-4683           
1 53712U 22107N   22263.91668981 -.00002551  00000+0 -13744-4 0  9990
2 53712  53.2138 194.8125 0001654 124.2148 309.9095 15.73218986  1309
STARLINK-4698           
1 53713U 22107P   22263.91668981 -.00008831  00000+0 -58539-4 0  9999
2 53713  53.2135 194.8175 0001585 122.5500 309.1745 15.73209575  1306
STARLINK-4688           
1 53714U 22107Q   22264.25001157  .00019533  00000+0  14338-3 0  9991
2 53714  53.2139 193.1682 0000900 115.8554  45.4031 15.73181161  2668
STARLINK-4686           
1 53715U 22107R   22264.25001157  .00025986  00000+0  18926-3 0  9998
2 53715  53.2138 193.1729 0001154 115.3861  43.4768 15.73166753  2652
STARLINK-4699           
1 53716U 22107S   22263.91668981 -.00051971  00000+0 -36747-3 0  9991
2 53716  53.2137 194.8199 0001446 119.3568 311.1909 15.73243333  1306
STARLINK-4702           
1 53717U 22107T   22264.25001157  .00230447  31140-4  66201-3 0  9993
2 53717  53.2114 191.9200 0007590 327.9764  80.8837 15.92685659  2666
STARLINK-4695           
1 53718U 22107U   22263.91668981 -.00041396  00000+0 -29159-3 0  9992
2 53718  53.2135 194.8185 0001252 125.8797 305.2802 15.73231335  1307
STARLINK-4644           
1 53719U 22107V   22264.25001157  .00212220  27613-4  67780-3 0  9997
2 53719  53.2118 192.0485 0007882 295.6280  51.0235 15.90660657  2668
STARLINK-4642           
1 53720U 22107W   22263.91668981 -.00002722  00000+0 -14973-4 0  9994
2 53720  53.2136 194.8223 0001570 118.1882 311.1332 15.73213812  1301
STARLINK-4707           
1 53721U 22107X   22264.25001157  .00044567  00000+0  32051-3 0  9996
2 53721  53.2139 193.1807 0001259 120.8186  34.4405 15.73182620  2653
STARLINK-4700           
1 53722U 22107Y   22264.25001157 -.00026588  00000+0 -18565-3 0  9996
2 53722  53.2138 193.1783 0001272 118.3553  38.1103 15.73196423  2653
STARLINK-4705           
1 53723U 22107Z   22263.91668981  .00006248  00000+0  48894-4 0  9991
2 53723  53.2136 194.8310 0001332 131.1371 294.0166 15.73202992  1306
STARLINK-4663           
1 53724U 22107AA  22263.91668981  .00006795  00000+0  52782-4 0  9990
2 53724  53.2134 194.8270 0001344 131.1906 295.7864 15.73205886  1305
STARLINK-4704           
1 53725U 22107AB  22264.25001157  .00223280  29876-4  64528-3 0  9992
2 53725  53.2111 191.9254 0007721 328.6081  77.6786 15.92578152  2663
STARLINK-4697           
1 53726U 22107AC  22264.25001157  .00019369  00000+0  14232-3 0  9994
2 53726  53.2137 193.1818 0000850 121.8949  32.7973 15.73164010  2656
STARLINK-4701           
1 53727U 22107AD  22264.25001157  .00026788  00000+0  19473-3 0  9990
2 53727  53.2137 193.1867 0001257 117.4975  34.7347 15.73193402  2657
STARLINK-4640           
1 53728U 22107AE  22264.25001157  .00041468  00000+0  29877-3 0  9992
2 53728  53.2138 193.1855 0001125 126.5524  26.2799 15.73172575  2656
STARLINK-4651           
1 53729U 22107AF  22263.91668981 -.00003366  00000+0 -19565-4 0  9990
2 53729  53.2135 194.8382 0001558 122.7951 298.7735 15.73208141  1305
STARLINK-4641           
1 53730U 22107AG  22264.25001157  .00026194  00000+0  19040-3 0  9995
2 53730  53.2136 193.1881 0001350 117.0245  34.5687 15.73208565  2658
STARLINK-4636           
1 53731U 22107AH  22264.25001157  .00024012  00000+0  17513-3 0  9996
2 53731  53.2138 193.1929 0001178 114.7541  34.4847 15.73183847  2657
STARLINK-4661           
1 53732U 22107AJ  22264.25001157  .00009238  00000+0  70160-4 0  9998
2 53732  53.2138 193.1892 0001106 121.6432  29.4097 15.73200963  2654
STARLINK-4574           
1 53733U 22107AK  22264.25001157  .00047681  00000+0  34276-3 0  9990
2 53733  53.2135 193.1954 0001058 103.2068  44.8688 15.73163106  2652
STARLINK-4616           
1 53734U 22107AL  22263.91668981 -.00023419  00000+0 -16268-3 0  9993
2 53734  53.2136 194.8395 0001262 122.6684 298.3361 15.73232728  1309
STARLINK-4618           
1 53735U 22107AM  22264.33334491  .00042623  00000+0  30710-3 0  9991
2 53735  53.2134 192.7849 0001170 126.2023 132.9715 15.73159192  2663
STARLINK-4652           
1 53736U 22107AN  22263.91668981 -.00004691  00000+0 -29015-4 0  9991
2 53736  53.2136 194.8421 0001462 118.8444 300.9426 15.73204770  1302
STARLINK-4646           
1 53737U 22107AP  22263.91668981 -.00008791  00000+0 -58235-4 0  9993
2 53737  53.2134 194.8471 0001549 122.5798 294.8203 15.73216178  1305
STARLINK-4662           
1 53738U 22107AQ  22263.91668981 -.00005469  00000+0 -34560-4 0  9998
2 53738  53.2137 194.8445 0001414 109.7913 308.7908 15.73206257  1301
STARLINK-4613           
1 53739U 22107AR  22264.17735411  .00080925  13636-4  23650-3 0  9990
2 53739  53.2117 192.2713 0007393 325.1957  34.8587 15.92877412  2572
STARLINK-4607           
1 53740U 22107AS  22264.25001157  .00010589  00000+0  79842-4 0  9994
2 53740  53.2137 193.2000 0001290 122.7936  22.9504 15.73177359  2652
STARLINK-4614           
1 53741U 22107AT  22264.25001157  .00017399  00000+0  12811-3 0  9993
2 53741  53.2137 193.2042 0001083  96.4182  47.4340 15.73202864  2659
STARLINK-4637           
1 53742U 22107AU  22263.91668981 -.00003886  00000+0 -23254-4 0  9992
2 53742  53.2137 194.8494 0001564 129.2999 286.9507 15.73222643  1306
STARLINK-4645           
1 53743U 22107AV  22263.91668981 -.00077953  00000+0 -55499-3 0  9994
2 53743  53.2135 194.8543 0001352 130.8662 282.9822 15.73248734  1305
STARLINK-4670           
1 53744U 22107AW  22263.91668981 -.00090498  00000+0 -64548-3 0  9999
2 53744  53.2136 194.8507 0001058 118.5667 297.0901 15.73267529  2598
STARLINK-4656           
1 53745U 22107AX  22264.25001157  .00070191  00000+0  50147-3 0  9990
2 53745  53.2136 193.2077 0001150 123.2029  18.9274 15.73148077  2658
STARLINK-4589           
1 53746U 22107AY  22263.91668981 -.00070863  00000+0 -50318-3 0  9995
2 53746  53.2136 194.8530 0001260 133.2681 281.1860 15.73272025  1304
STARLINK-4657           
1 53747U 22107AZ  22264.25001157  .00430091  86729-4  99346-3 0  9992
2 53747  53.2116 191.7187 0006406 305.5375 200.2887 15.96647781  2669
STARLINK-4669           
1 53748U 22107BA  22264.25001157 -.00003516  00000+0 -20666-4 0  9996
2 53748  53.2137 193.2088 0001161 123.7813  17.7894 15.73181129  2652
STARLINK-4680           
1 53749U 22107BB  22264.25001157  .00048758  00000+0  35051-3 0  9995
2 53749  53.2154 193.2104 0001044  97.1189  43.8412 15.73152944  2650
STARLINK-4612           
1 53750U 22107BC  22263.91668981 -.00024711  00000+0 -17201-3 0  9995
2 53750  53.2137 194.8592 0001116 107.4716 303.9927 15.73221360  2595
FALCON 9 DEB            
1 53751U 22107BD  22263.85640656  .00247886  34848-4  65183-3 0  9990
2 53751  53.2121 193.8203 0006746 317.1144  42.9359 15.94348507  2513
SHERPA-LTC2             
1 53752U 22107BE  22264.24406145  .00216012  28808-4  60470-3 0  9998
2 53752  53.2102 191.9766 0009591 337.1880  22.8722 15.93163747  2584
FALCON 9 DEB            
1 53753U 22107BF  22263.86177423  .00279922  41375-4  74314-3 0  9995
2 53753  53.2092 193.8565 0009028 314.1785  45.8501 15.94107101  2511
FALCON 9 DEB            
1 53754U 22107BG  22264.19069628  .00130879  17370-4  42179-3 0  9999
2 53754  53.2132 192.3627 0009332 324.8461  35.1950 15.90654970  2570
FALCON 9 DEB            
1 53755U 22107BH  22263.85034432  .00294977  45416-4  72852-3 0  9990
2 53755  53.2063 193.7783 0004936 309.7436  50.3159 15.95494734  2510
FALCON 9 DEB            
1 53756U 22107BJ  22263.84748190  .00286034  43435-4  69747-3 0  9996
2 53756  53.2071 193.7587 0005983 297.0239  63.0179 15.95725297  2519
CENTISPACE-1 S3         
1 53757U 22108A   22264.22726309 -.00000322  00000+0 -29544-4 0  9993
2 53757  53.5333 284.3972 0009095 323.7144  36.3156 14.58242258  2202
CENTISPACE-1 S4         
1 53758U 22108B   22264.23280007  .00000373  00000+0  12099-3 0  9995
2 53758  53.5304 284.4229 0008585 306.0554  53.9594 14.57716763  2206
KZ-1A R/B               
1 53759U 22108C   22263.93680145  .00460679  10002-4  72110-3 0  9996
2 53759  53.5605 277.7984 0363812 123.5484 240.0708 15.40681063  2275
YAOGAN-35 05A           
1 53760U 22109A   22264.25312405  .00010055  00000+0  41445-3 0  9994
2 53760  34.9992 290.7185 0006808  29.9116  60.5249 15.23298025  2309
YAOGAN-35 05B           
1 53761U 22109B   22264.28429297  .00009801  00000+0  40439-3 0  9995
2 53761  34.9989 290.4704 0005482  47.8886 234.5063 15.23274745  2265
CZ-2D DEB               
1 53762U 22109C   22263.53442939  .00017824  00000+0  71693-3 0  9991
2 53762  34.9991 295.1560 0008958  37.2310  97.2374 15.24013110  2152
YAOGAN-35 05C           
1 53763U 22109D   22264.28762168  .00006868  00000+0  28471-3 0  9996
2 53763  34.9987 290.4941 0005803  45.5157 237.5417 15.23186903  2265
CZ-2D R/B               
1 53764U 22109E   22264.10787808  .00029166  00000+0  11699-2 0  9995
2 53764  35.0019 291.5723 0008609  35.3453   0.6845 15.24029036  2243
EUTELSAT KONNECT VHTS   
1 53765U 22110A   22263.62500000 -.00000285  00000+0  00000+0 0  9994
2 53765   3.4208 141.1118 7987329 181.1941  67.4529  1.15077314   150
ARIANE 5 R/B            
1 53766U 22110B   22262.46993079  .00000489  00000+0  19117-2 0  9995
2 53766   3.2356 148.6296 8156595 173.7862 214.2071  1.26370616   152
1998-067UE              
1 53767U 98067UE  22263.97775739  .00028738  00000+0  47933-3 0  9993
2 53767  51.6405 221.8934 0003119 327.1399  32.9396 15.51731771  2268
BEAVERCUBE              
1 53768U 98067UF  22262.94851858  .00032984  00000+0  55260-3 0  9997
2 53768  51.6406 227.0191 0001141 351.4632   8.6338 15.51537176  2119
CLICK-A                 
1 53769U 98067UG  22262.94751405  .00039587  00000+0  65641-3 0  9995
2 53769  51.6416 227.0130 0001262 334.9657  25.1271 15.51738242  2118
1998-067UH              
1 53770U 98067UH  22257.21407978  .00055607  00000+0  92093-3 0  9996
2 53770  51.6411 255.4701 0002998 298.2473  61.8214 15.51618817  1229
